{
  "norad_id": 58635,
  "name": "STARLINK-31018",
  "history": [
    {
      "epoch": "2026-03-28T16:32:08.901888Z",
      "apogee_km": 483.7093114095742,
      "perigee_km": 482.400882076724,
      "latitude_deg": -8.75292668450711e-06,
      "longitude_deg": -114.04883780257357,
      "height_km": 482.7539879727065,
      "semi_major_axis_km": 6861.192096743149,
      "eccentricity": 9.535e-05,
      "inclination_deg": 43.0024,
      "raan_deg": 320.0941,
      "arg_perigee_deg": 276.8211,
      "mean_anomaly_deg": 83.2532,
      "mean_motion_rev_day": 15.27577996
    },
    {
      "epoch": "2026-03-29T00:22:55.646112Z",
      "apogee_km": 483.7553171498712,
      "perigee_km": 482.32544778336523,
      "latitude_deg": -1.6292291362830194e-05,
      "longitude_deg": 126.08744962135246,
      "height_km": 482.8208605128932,
      "semi_major_axis_km": 6861.177382466618,
      "eccentricity": 0.0001042,
      "inclination_deg": 43.0027,
      "raan_deg": 318.2474,
      "arg_perigee_deg": 269.6971,
      "mean_anomaly_deg": 90.3761,
      "mean_motion_rev_day": 15.2758291
    },
    {
      "epoch": "2026-03-29T22:21:07.254144Z",
      "apogee_km": 483.3700333698789,
      "perigee_km": 482.72233767716443,
      "latitude_deg": -4.257619974234661e-06,
      "longitude_deg": 150.46372475227767,
      "height_km": 482.7249478705419,
      "semi_major_axis_km": 6861.183185523521,
      "eccentricity": 4.72e-05,
      "inclination_deg": 43.0039,
      "raan_deg": 313.0743,
      "arg_perigee_deg": 287.5291,
      "mean_anomaly_deg": 72.5509,
      "mean_motion_rev_day": 15.27580972
    },
    {
      "epoch": "2026-03-29T22:21:07.255008Z",
      "apogee_km": 483.3702392053747,
      "perigee_km": 482.7221318416696,
      "latitude_deg": -2.0074680047404633e-06,
      "longitude_deg": 150.46372354175196,
      "height_km": 482.7248858837115,
      "semi_major_axis_km": 6861.183185523521,
      "eccentricity": 4.723e-05,
      "inclination_deg": 43.0039,
      "raan_deg": 313.0743,
      "arg_perigee_deg": 287.5291,
      "mean_anomaly_deg": 72.5509,
      "mean_motion_rev_day": 15.27580972
    },
    {
      "epoch": "2026-03-30T14:02:41.818272Z",
      "apogee_km": 483.81399968382266,
      "perigee_km": 482.33088065123684,
      "latitude_deg": 4.333832202754788e-05,
      "longitude_deg": -89.26312690027284,
      "height_km": 482.9207790136916,
      "semi_major_axis_km": 6861.2094401675295,
      "eccentricity": 0.00010808,
      "inclination_deg": 43.002,
      "raan_deg": 309.3859,
      "arg_perigee_deg": 264.4512,
      "mean_anomaly_deg": 95.6217,
      "mean_motion_rev_day": 15.27572204
    },
    {
      "epoch": "2026-03-30T21:53:28.576320Z",
      "apogee_km": 483.79157940130244,
      "perigee_km": 482.3337117006158,
      "latitude_deg": -4.607330353032277e-05,
      "longitude_deg": 150.87411595183033,
      "height_km": 482.6583592542933,
      "semi_major_axis_km": 6861.199645550959,
      "eccentricity": 0.00010624,
      "inclination_deg": 43.0027,
      "raan_deg": 307.5403,
      "arg_perigee_deg": 284.3777,
      "mean_anomaly_deg": 75.6956,
      "mean_motion_rev_day": 15.27575475
    },
    {
      "epoch": "2026-03-31T07:18:24.873984Z",
      "apogee_km": 483.81405904879284,
      "perigee_km": 482.30596794522535,
      "latitude_deg": 3.743195747416902e-05,
      "longitude_deg": 7.036645403633391,
      "height_km": 482.7105450416771,
      "semi_major_axis_km": 6861.197013497009,
      "eccentricity": 0.0001099,
      "inclination_deg": 43.0028,
      "raan_deg": 305.324,
      "arg_perigee_deg": 279.6367,
      "mean_anomaly_deg": 80.4361,
      "mean_motion_rev_day": 15.27576354
    },
    {
      "epoch": "2026-04-01T20:58:07.781952Z",
      "apogee_km": 483.77850962117554,
      "perigee_km": 482.18398574041476,
      "latitude_deg": 2.7311552254638195e-05,
      "longitude_deg": 151.69753341740704,
      "height_km": 482.78914065882753,
      "semi_major_axis_km": 6861.118247680795,
      "eccentricity": 0.0001162,
      "inclination_deg": 43.0029,
      "raan_deg": 296.4604,
      "arg_perigee_deg": 267.7659,
      "mean_anomaly_deg": 92.306,
      "mean_motion_rev_day": 15.27602659
    },
    {
      "epoch": "2026-04-02T20:30:30.557376Z",
      "apogee_km": 484.78796454193525,
      "perigee_km": 481.32031853899935,
      "latitude_deg": -7.248621053219741e-06,
      "longitude_deg": 152.09776023958972,
      "height_km": 482.83967861181094,
      "semi_major_axis_km": 6861.191141540467,
      "eccentricity": 0.0002527,
      "inclination_deg": 43.005,
      "raan_deg": 290.9223,
      "arg_perigee_deg": 269.7544,
      "mean_anomaly_deg": 90.3018,
      "mean_motion_rev_day": 15.27578315
    },
    {
      "epoch": "2026-04-02T22:04:40.094400Z",
      "apogee_km": 483.9848870295009,
      "perigee_km": 482.1024535008064,
      "latitude_deg": -3.090314623183503e-05,
      "longitude_deg": 128.12384794948096,
      "height_km": 482.8109600744924,
      "semi_major_axis_km": 6861.180670265153,
      "eccentricity": 0.00013718,
      "inclination_deg": 43.0028,
      "raan_deg": 290.5526,
      "arg_perigee_deg": 270.5908,
      "mean_anomaly_deg": 89.4786,
      "mean_motion_rev_day": 15.27581812
    },
    {
      "epoch": "2026-04-03T20:02:50.447040Z",
      "apogee_km": 483.99106021799525,
      "perigee_km": 482.0370044039928,
      "latitude_deg": -3.0734878751509683e-05,
      "longitude_deg": 152.50815507439768,
      "height_km": 482.7970108101793,
      "semi_major_axis_km": 6861.151032310993,
      "eccentricity": 0.0001424,
      "inclination_deg": 43.0014,
      "raan_deg": 285.3823,
      "arg_perigee_deg": 269.6423,
      "mean_anomaly_deg": 90.4265,
      "mean_motion_rev_day": 15.2759171
    },
    {
      "epoch": "2026-04-04T19:35:12.431904Z",
      "apogee_km": 483.99314592453084,
      "perigee_km": 482.1762944130296,
      "latitude_deg": 7.390482443637248e-06,
      "longitude_deg": 152.9107608835182,
      "height_km": 482.86021038888293,
      "semi_major_axis_km": 6861.22172016878,
      "eccentricity": 0.0001324,
      "inclination_deg": 43.0013,
      "raan_deg": 279.8432,
      "arg_perigee_deg": 270.0816,
      "mean_anomaly_deg": 89.9884,
      "mean_motion_rev_day": 15.27568103
    },
    {
      "epoch": "2026-04-05T05:00:09.717120Z",
      "apogee_km": 483.9963340506556,
      "perigee_km": 482.2906197241018,
      "latitude_deg": 1.1133084468415647e-05,
      "longitude_deg": 9.071178138580759,
      "height_km": 482.7885996884576,
      "semi_major_axis_km": 6861.280476887378,
      "eccentricity": 0.0001243,
      "inclination_deg": 43.0008,
      "raan_deg": 277.629,
      "arg_perigee_deg": 278.8727,
      "mean_anomaly_deg": 81.1984,
      "mean_motion_rev_day": 15.27548481
    },
    {
      "epoch": "2026-04-05T19:07:33.900096Z",
      "apogee_km": 483.9439817152643,
      "perigee_km": 482.2259317373,
      "latitude_deg": -3.620491281071299e-05,
      "longitude_deg": 153.31603742532837,
      "height_km": 482.7410666715089,
      "semi_major_axis_km": 6861.221956726282,
      "eccentricity": 0.0001252,
      "inclination_deg": 43.0006,
      "raan_deg": 274.3047,
      "arg_perigee_deg": 278.0669,
      "mean_anomaly_deg": 82.004,
      "mean_motion_rev_day": 15.27568024
    },
    {
      "epoch": "2026-04-07T11:55:37.578144Z",
      "apogee_km": 483.95476413829056,
      "perigee_km": 482.1759288179419,
      "latitude_deg": -4.848311239200283e-05,
      "longitude_deg": -109.97714358813224,
      "height_km": 482.67434413275413,
      "semi_major_axis_km": 6861.202346478116,
      "eccentricity": 0.00012963,
      "inclination_deg": 43.0015,
      "raan_deg": 264.7025,
      "arg_perigee_deg": 280.8744,
      "mean_anomaly_deg": 79.1961,
      "mean_motion_rev_day": 15.27574573
    },
    {
      "epoch": "2026-04-07T18:12:14.599584Z",
      "apogee_km": 483.8940512859135,
      "perigee_km": 482.17189762232556,
      "latitude_deg": 6.500574849173279e-06,
      "longitude_deg": 154.13437308615323,
      "height_km": 482.70188688065673,
      "semi_major_axis_km": 6861.169974454119,
      "eccentricity": 0.0001255,
      "inclination_deg": 43.0007,
      "raan_deg": 263.226,
      "arg_perigee_deg": 277.1886,
      "mean_anomaly_deg": 82.8823,
      "mean_motion_rev_day": 15.27585384
    },
    {
      "epoch": "2026-04-08T11:27:58.707648Z",
      "apogee_km": 483.7263149454611,
      "perigee_km": 482.41006134216786,
      "latitude_deg": -1.028686060537266e-05,
      "longitude_deg": -109.57036610838666,
      "height_km": 482.78306265671995,
      "semi_major_axis_km": 6861.205188143815,
      "eccentricity": 9.592e-05,
      "inclination_deg": 43.0003,
      "raan_deg": 259.164,
      "arg_perigee_deg": 275.361,
      "mean_anomaly_deg": 84.7132,
      "mean_motion_rev_day": 15.27573624
    },
    {
      "epoch": "2026-04-09T17:16:56.818848Z",
      "apogee_km": 484.21587655677104,
      "perigee_km": 481.8899331790208,
      "latitude_deg": 1.4203085059379334e-05,
      "longitude_deg": 154.94622085931115,
      "height_km": 482.5826558016299,
      "semi_major_axis_km": 6861.189904867896,
      "eccentricity": 0.0001695,
      "inclination_deg": 43.002,
      "raan_deg": 252.1472,
      "arg_perigee_deg": 282.2832,
      "mean_anomaly_deg": 77.783,
      "mean_motion_rev_day": 15.27578728
    },
    {
      "epoch": "2026-04-09T17:16:56.819712Z",
      "apogee_km": 484.21594516867117,
      "perigee_km": 481.88986456712246,
      "latitude_deg": 1.4971539962282233e-05,
      "longitude_deg": 154.9462180689112,
      "height_km": 482.58264120698516,
      "semi_major_axis_km": 6861.189904867896,
      "eccentricity": 0.00016951,
      "inclination_deg": 43.002,
      "raan_deg": 252.1472,
      "arg_perigee_deg": 282.2832,
      "mean_anomaly_deg": 77.783,
      "mean_motion_rev_day": 15.27578728
    },
    {
      "epoch": "2026-04-11T17:55:48.081792Z",
      "apogee_km": 483.85884454899406,
      "perigee_km": 482.2780228170732,
      "latitude_deg": 6.886050779237379e-06,
      "longitude_deg": 131.78842826172365,
      "height_km": 482.78931058673993,
      "semi_major_axis_km": 6861.205433683033,
      "eccentricity": 0.0001152,
      "inclination_deg": 43.0,
      "raan_deg": 240.7009,
      "arg_perigee_deg": 274.0352,
      "mean_anomaly_deg": 86.0368,
      "mean_motion_rev_day": 15.27573542
    },
    {
      "epoch": "2026-04-13T01:18:55.165824Z",
      "apogee_km": 483.9524726795871,
      "perigee_km": 482.12424389361695,
      "latitude_deg": 2.1768123387162436e-06,
      "longitude_deg": 12.333657051898436,
      "height_km": 482.79821896079477,
      "semi_major_axis_km": 6861.175358286601,
      "eccentricity": 0.00013323,
      "inclination_deg": 43.0012,
      "raan_deg": 233.3146,
      "arg_perigee_deg": 271.0606,
      "mean_anomaly_deg": 89.0093,
      "mean_motion_rev_day": 15.27583586
    },
    {
      "epoch": "2026-04-14T18:06:59.644800Z",
      "apogee_km": 484.1023270380465,
      "perigee_km": 481.9959428946122,
      "latitude_deg": 1.796515518815976e-05,
      "longitude_deg": 109.03756562777752,
      "height_km": 482.6310057029528,
      "semi_major_axis_km": 6861.1861349663295,
      "eccentricity": 0.0001535,
      "inclination_deg": 43.002,
      "raan_deg": 223.7128,
      "arg_perigee_deg": 280.6793,
      "mean_anomaly_deg": 79.3886,
      "mean_motion_rev_day": 15.27579987
    },
    {
      "epoch": "2026-04-15T14:31:01.206048Z",
      "apogee_km": 484.0140792243192,
      "perigee_km": 482.0805974777704,
      "latitude_deg": -1.8504497033174815e-05,
      "longitude_deg": 157.3938070761799,
      "height_km": 482.708296661891,
      "semi_major_axis_km": 6861.184338351044,
      "eccentricity": 0.0001409,
      "inclination_deg": 42.9997,
      "raan_deg": 218.9134,
      "arg_perigee_deg": 276.8753,
      "mean_anomaly_deg": 83.1938,
      "mean_motion_rev_day": 15.27580587
    }
  ]
}